[{"OBJECT_NAME":"HST","OBJECT_ID":"1990-037B","EPOCH":"2026-03-09T03:50:04.164288","MEAN_MOTION":15.29473555,"ECCENTRICITY":0.00018372,"INCLINATION":28.4717,"RA_OF_ASC_NODE":43.6133,"ARG_OF_PERICENTER":120.9992,"MEAN_ANOMALY":239.0785,"EPHEMERIS_TYPE":0,"CLASSIFICATION_TYPE":"U","NORAD_CAT_ID":20580,"ELEMENT_SET_NO":999,"REV_AT_EPOCH":77323,"BSTAR":0.0003002261,"MEAN_MOTION_DOT":9.063e-5,"MEAN_MOTION_DDOT":0},{"OBJECT_NAME":"STARLINK-35207","OBJECT_ID":"2025-198J","EPOCH":"2026-03-09T20:32:12.294240","MEAN_MOTION":15.30172373,"ECCENTRICITY":9.585e-5,"INCLINATION":53.1567,"RA_OF_ASC_NODE":270.3556,"ARG_OF_PERICENTER":100.6259,"MEAN_ANOMALY":259.4849,"EPHEMERIS_TYPE":0,"CLASSIFICATION_TYPE":"U","NORAD_CAT_ID":65500,"ELEMENT_SET_NO":999,"REV_AT_EPOCH":2864,"BSTAR":0.00099926712,"MEAN_MOTION_DOT":0.00029328,"MEAN_MOTION_DDOT":0}]
